[{"OBJECT_NAME":"TRANSPORTER-10 OBJECT AW","OBJECT_ID":"2024-043AW","EPOCH":"2026-03-09T22:04:49.515456","MEAN_MOTION":15.70494371,"ECCENTRICITY":0.00039773,"INCLINATION":97.534,"RA_OF_ASC_NODE":220.1774,"ARG_OF_PERICENTER":196.6835,"MEAN_ANOMALY":163.4297,"EPHEMERIS_TYPE":0,"CLASSIFICATION_TYPE":"U","NORAD_CAT_ID":59142,"ELEMENT_SET_NO":999,"REV_AT_EPOCH":11287,"BSTAR":0.00092189633,"MEAN_MOTION_DOT":0.00114165,"MEAN_MOTION_DDOT":0},{"OBJECT_NAME":"STARLINK-11256 [DTC]","OBJECT_ID":"2024-154B","EPOCH":"2026-03-09T11:12:06.959808","MEAN_MOTION":15.6972679,"ECCENTRICITY":0.00013803,"INCLINATION":53.16,"RA_OF_ASC_NODE":132.0558,"ARG_OF_PERICENTER":87.3306,"MEAN_ANOMALY":272.787,"EPHEMERIS_TYPE":0,"CLASSIFICATION_TYPE":"U","NORAD_CAT_ID":60904,"ELEMENT_SET_NO":999,"REV_AT_EPOCH":8848,"BSTAR":-2.2761905e-5,"MEAN_MOTION_DOT":-3.348e-5,"MEAN_MOTION_DDOT":0}]
